FENGYUN 1C DEB          
1 32126U 99025CRU 17345.00165577  .00000094  00000-0  15472-3 0  9995
2 32126  99.1290  49.1707 0293359 143.9674 218.1634 13.51571860221714
